#dP2021  2 12 18  0  0.00000000      96 __u+U ITR00 EXT  IAC
## 2144 496800.00000000   900.00000000 59257 0.7500000000000
+  117   C06C07C08C09C10C11C12C13C14C16C19C20C21C22C23C24C25
+        C26C27C28C29C30C32C33C34C35C36C37C38C39C40C41C42C43
+        C44C45C46E01E02E03E04E05E07E08E09E11E12E13E14E15E18
+        E19E21E24E25E26E27E30E31E33E36G01G02G03G04G05G06G07
+        G08G09G10G11G12G13G14G15G16G17G18G19G20G21G22G23G24
+        G25G26G27G28G29G30G31G32J01J02J03R01R02R03R04R05R07
+        R08R09R11R12R13R14R15R16R17R18R19R20R21R22R24  0  0
++         8 11 10 10  9  8  8  9 10 10 10  9  7  9  8  8  9
++         8  9  7  9 10  8  8  9  9  7  9 10 10 11 10 10  8
++         9  9  9  9 10  8  9  9  8  8  8  9  8  8  8  7  7
++         8  9  8  9  9  8  7  9  8  9  8  8  7  7  8  7  7
++         7  7  9  8  8  8  8  6  8  8  7  8  7  7  8  8  8
++         7  9  7  8  9  7  7  8 10  9 10  9  6  9 10 10 10
++        10  8  9  9  9 10  8  7  8  9 10 10  8 10  8  0  0
%c M  cc GPS ccc cccc cccc cccc cccc ccccc ccccc ccccc ccccc
%c cc cc ccc ccc cccc cccc cccc cccc ccccc ccccc ccccc ccccc
%f  0.0000000  0.000000000  0.00000000000  0.000000000000000
%f  0.0000000  0.000000000  0.00000000000  0.000000000000000
%i    0    0    0    0      0      0      0      0         0
%i    0    0    0    0      0      0      0      0         0
/* IAC                                ULTRA-RAPID PREDICTION
/* S/V CLOCKS ARE ALIGNED TO GNSS TIME                      
/* G:C1WC2W R:C1PC2P E:C1XC5X C:C2IC6I J:C1CC2S             
/* PCV:IGS14_2134 OL/AL:FES2004  NONE     YN ORB:CoN CLK:CoN
*  2021 02 13 17  0  0.00000000
PC06 -23562.515885  31878.345760 -14581.896118     88.603301
PC07  -9426.703828  34730.087326 -21295.813306   -322.998236
PC08 -12795.507378  17862.310802  36061.063958   -914.709998
PC09 -11128.716862  31054.971885 -26221.340287    735.778812
PC10    958.305286  40455.184421 -10794.251431    -87.085541
PC11  -9165.775873  18929.228220  18388.937461   -925.456458
PC12 -23019.576379  15479.471347   3001.678325    795.739166
PC13   3462.632958  24466.962414  34314.615365    140.010725
PC14  -2470.090992  27477.631644   4034.301308    127.964019
PC16 -21651.583809  32263.723412 -16562.677954   -694.630640
PC19  -4117.950875 -27073.247661   5430.612562    726.644014
PC20   7614.745729 -24285.381963 -11457.675058   -915.292442
PC21 -15375.465720   6745.479667  22304.660755   -836.704275
PC22 -13763.028571 -14285.299053  19641.233825   -878.440733
PC23  23887.083926  14416.556833   -766.558398   -876.206751
PC24  -9410.801187  13293.615309 -22671.634263   -759.800870
PC25  11449.529144  19508.393206 -16365.546008   -932.212833
PC26 -22906.526086    463.980551 -15916.433906    949.010580
PC27  25478.078083  -9444.584302   6295.862375    482.755621
PC28  18569.211462   5436.958418  20115.902553   -109.933105
PC29  -1459.064151 -17038.918215 -22054.099715    351.949225
PC30  17082.195087 -19272.287901 -10717.136005    444.210651
PC32  15322.249155  -6874.508882 -22272.690652   -894.214313
PC33   4188.651101  27066.198758  -5309.066213   -961.799128
PC34 -16628.702558  19388.355868  11267.607206   -740.796103
PC35 -18591.801829  -5052.915293 -20202.302369   -419.611657
PC36 -10641.678862 -19754.917440  16604.511175   -756.652387
PC37  23331.175098    783.203324  15318.659952   -864.855755
PC38 -11151.724719  21122.661835  34766.617644    129.861417
PC39 -18884.507749  33689.509503 -17074.328026     28.427753
PC40  -4169.100711  39204.802180 -14741.701552    131.215222
PC41  13725.915131  14516.565839 -19440.560046   -930.135137
PC42  -8071.304263  23839.554243  12085.417303   -865.822829
PC43    909.480342  17347.917207  21842.715423   -596.306425
PC44 -25209.308952  10119.089047  -6480.028709     36.924063
PC45 -23932.410693 -14307.314081    701.802454    361.276484
PC46   8525.600179 -13682.470450  22778.473739    406.965602
PE01 -10974.829346  12950.925876 -24252.324297  -1045.408264
PE02  10912.106804 -13020.371344  24232.278909    198.159634
PE03  17597.797452 -22293.875291  -8357.945165   -398.249317
PE04  -5662.701905  27310.466967  -9913.687216   -709.109012
PE05  19378.496687  -4106.924599 -21995.412322   -304.848348
PE07  -9840.827134 -16294.884500  22672.408932   -500.401789
PE08   5338.906328 -27266.246800  10222.105412   6047.489314
PE09   9918.269723  16030.671264 -22817.743653   5766.564017
PE11  19508.376773  11199.387392  19230.826602   6326.819625
PE12  -2507.474879  16333.853048  24567.378983   5357.859164
PE13 -19203.498753 -11249.030361 -19508.383631    412.013213
PE14  12329.978604   8655.941924  18184.869942  -1328.733861
PE15   2383.605237 -16254.684394 -24608.209521    829.475890
PE18 -13898.270546 -15262.826720 -24978.246060  -1452.512428
PE19 -18360.366195  20757.317091  10412.564435    202.938239
PE21 -20616.255000  -6347.461358 -20269.187890   -648.270932
PE24  18209.672459  23057.310681   3717.856107   -741.791819
PE25  20665.313875   6551.939369  20161.480679   -526.369108
PE26 -29509.236034    657.905426  -2220.445962   2152.225629
PE27 -18595.757759 -22599.226952  -4374.713181     30.603929
PE30  -4865.312531 -25278.396508  14580.152633   3183.993834
PE31   5671.139685  25470.769268 -13979.567371   -478.258816
PE33 -22537.286868  11695.917818  15233.892539   -465.668723
PE36  29445.577984   -341.594356   2974.338238    441.096412
PG01 -16096.495146 -13686.531802 -16545.704007    761.904584
PG02  -8439.464583  14327.988444  21377.185269   -576.491453
PG03 -13160.913216 -22360.446885   5851.399903    -82.084724
PG04  -6377.431528 -15077.597572  20908.299770   -179.972237
PG05   1560.322534  23760.300043  11426.671948    -33.607202
PG06 -21152.004083   6761.453774  14676.560304     -2.922718
PG07 -25580.785990  -7069.386561   4236.509221     57.461670
PG08   -315.387515 -19642.201630 -17724.046497    -10.168222
PG09 -15818.512389  -3785.596002  20938.355646   -322.552421
PG10  14875.624550  -2998.479283 -21706.609261    -60.719606
PG11  -7656.549554 -14650.547421 -21220.542984    -25.620572
PG12   9147.828015  24938.787777   1808.425133     -0.621045
PG13 -10508.734606  21408.312701 -11697.198744     96.816239
PG14 -15596.179348   1053.995186 -21484.703522     96.576458
PG15   3368.073622  19648.589995 -17734.748324   -169.656813
PG16   2254.161654 -22839.109277  12713.960780   -279.594468
PG17 -20675.217726  12134.838160 -10993.321460    393.556674
PG18  26100.578632   5022.975062    818.910388    347.103514
PG19 -20301.655355  16547.487991  -4383.277043    -38.968843
PG20  19015.246822   8824.070547 -16519.150113    524.710511
PG21  -8692.529796 -14645.774088 -19760.279054     95.278283
PG22 -10020.198754 -24490.167190  -2990.750714   -679.958603
PG23  17389.384792   8543.134688 -18207.506130    118.334658
PG24  11535.333391  14997.944223 -19024.426695      2.393828
PG25  16459.907951  15753.932061  13622.519699     79.773045
PG26   8696.471554 -15489.606992  19615.799606     44.376572
PG27  10927.928286 -22641.277002  -8121.756039    -75.617172
PG28 -14071.079824   4122.823825 -21586.545339    616.069087
PG29  14907.868865   4776.605934  21423.369848   -294.293189
PG30 -25507.996269   1229.053483  -7664.127028   -384.197744
PG31  19648.074962  -8135.271247  16118.465189    -99.870379
PG32  20050.263859 -13670.870641 -10498.228770     18.605128
PJ01 -28651.844610  26754.922981  20486.076353   -341.039266
PJ02 -22173.958290  18285.198984 -26373.700586      1.843986
PJ03 -29325.615930  29962.534445   9463.571681     -0.699022
PR01  -5539.622769 -18020.046904  17190.627315     74.956205
PR02 -11477.280591   3614.126080  22539.382240    466.878499
PR03  -9640.140670  20065.638829  12544.982930     30.779181
PR04  -2412.325120  25010.905595  -4394.228440     73.902582
PR05   6065.171529  16030.041187 -18892.869832     66.474674
PR07   9422.794215 -20447.813317 -11910.316456    -42.421479
PR08   2297.806277 -24992.746468   4547.410400    -57.359223
PR09  19404.449944   6202.949172  15320.497074    -21.904167
PR11  -7597.308109 -16872.784347  17567.092364      3.425884
PR12 -19088.814559 -16838.973885   1437.339884    204.723925
PR13 -19514.048992  -6699.285576 -15016.692284    -50.666084
PR14  -8136.998319   7623.215668 -22936.068632     60.975320
PR15   7624.161671  17169.523226 -17244.872485    105.438825
PR16  19825.172302  16158.128209   -527.189352    -11.258027
PR17 -20274.869454  11972.975249   9783.097942    399.778523
PR18  -5975.808669  12359.070871  21532.545554     66.537207
PR19  10775.195969   6827.126478  22094.758216   -131.886253
PR20  23779.176933  -3776.130092   8365.750539   -433.302956
PR21  19670.221526 -12129.833504 -10816.815529   -187.448285
PR22   4719.504840 -12025.230119 -21982.086478    -97.675160
PR24 -23963.248746   4360.205035  -7542.131543     31.417737
EOF
